NORAD_CAT_ID,OBJECT_NAME,OBJECT_TYPE,EPOCH,MEAN_MOTION,ECCENTRICITY,INCLINATION,RA_OF_ASC_NODE,ARG_OF_PERICENTER,MEAN_ANOMALY,BSTAR,MEAN_MOTION_DOT,MEAN_MOTION_DDOT,TLE_LINE0,TLE_LINE1,TLE_LINE2,SEMIMAJOR_AXIS,PERIOD,APOGEE,PERIGEE,DECAYED
52002.0,STARLINK-3668,PAYLOAD,2022-10-04 08:32:33,15.0884351,0.0001742,53.2191,241.0613,58.4378,301.6784,0.00017585,2.512e-05,0.0,0 STARLINK-3668,1 52002U 22025AY  22277.35594561  .00002512  00000-0  17585-3 0  9997,2 52002  53.2191 241.0613 0001742  58.4378 301.6784 15.08843510 31860,6917.87,95.437,540.94,538.53,0.0
52002.0,STARLINK-3668,PAYLOAD,2022-10-04 14:54:06,15.08836885,0.0001754,53.219,239.8722,58.3593,301.757,0.0001146,1.536e-05,0.0,0 STARLINK-3668,1 52002U 22025AY  22277.62091164  .00001536  00000-0  11460-3 0  9999,2 52002  53.2190 239.8722 0001754  58.3593 301.7570 15.08836885 31902,6917.89,95.438,540.9680000000002,538.5419999999998,0.0
52002.0,STARLINK-3668,PAYLOAD,2022-10-05 02:01:49,15.0881455,0.0001676999999999,53.2191,237.7904,62.3731,297.7432,0.00033041,4.971e-05,0.0,0 STARLINK-3668,1 52002U 22025AY  22278.08460079  .00004971  00000-0  33041-3 0  9990,2 52002  53.2191 237.7904 0001677  62.3731 297.7432 15.08814550 33486,6917.958000000001,95.439,540.9830000000002,538.663,0.0
52002.0,STARLINK-3668,PAYLOAD,2022-10-05 06:47:58,15.08839252,0.0001585999999999,53.2195,236.8987,59.7249,300.39,-0.00010082,-1.892e-05,0.0,0 STARLINK-3668,1 52002U 22025AY  22278.28331601 -.00001892  00000-0 -10082-3 0  9991,2 52002  53.2195 236.8987 0001586  59.7249 300.3900 15.08839252 32008,6917.8830000000025,95.438,540.845,538.65,0.0
52002.0,STARLINK-3668,PAYLOAD,2022-10-06 06:38:45,15.08832189,0.0001595999999999,53.2196,232.4404,59.4362,300.6788,-7.2444e-05,-1.441e-05,0.0,0 STARLINK-3668,1 52002U 22025AY  22279.27692055 -.00001441  00000-0 -72444-4 0  9995,2 52002  53.2196 232.4404 0001596  59.4362 300.6788 15.08832189 32154,6917.904,95.438,540.873,538.665,0.0
52002.0,STARLINK-3668,PAYLOAD,2022-10-06 14:35:41,15.08838277,0.0001625,53.2197,230.9545,58.2235,301.8915,-1.9482e-05,-5.98e-06,0.0,0 STARLINK-3668,1 52002U 22025AY  22279.60811606 -.00000598  00000-0 -19482-4 0  9992,2 52002  53.2197 230.9545 0001625  58.2235 301.8915 15.08838277 32208,6917.886,95.438,540.875,538.626,0.0
52002.0,STARLINK-3668,PAYLOAD,2022-10-07 06:29:31,15.08840295,0.0001426,53.2188,227.9772,61.7442,298.3694,0.00016039,2.266e-05,0.0,0 STARLINK-3668,1 52002U 22025AY  22280.27050865  .00002266  00000-0  16039-3 0  9995,2 52002  53.2188 227.9772 0001426  61.7442 298.3694 15.08840295 33819,6917.879,95.438,540.731,538.758,0.0
52002.0,STARLINK-3668,PAYLOAD,2022-10-08 03:09:33,15.08829625,0.0001576999999999,53.2201,224.1159,59.1437,300.9711,3.5904e-05,2.83e-06,0.0,0 STARLINK-3668,1 52002U 22025AY  22281.13163868  .00000283  00000-0  35904-4 0  9999,2 52002  53.2201 224.1159 0001577  59.1437 300.9711 15.08829625 33943,6917.9119999999975,95.438,540.868,538.686,0.0
52002.0,STARLINK-3668,PAYLOAD,2022-10-08 12:41:52,15.08824597,0.0001624,53.2201,222.3313,59.6719,300.4434,-1.0293e-05,-4.52e-06,0.0,0 STARLINK-3668,1 52002U 22025AY  22281.52908561 -.00000452  00000-0 -10293-4 0  9993,2 52002  53.2201 222.3313 0001624  59.6719 300.4434 15.08824597 32495,6917.927,95.439,540.9159999999998,538.669,0.0
52002.0,STARLINK-3668,PAYLOAD,2022-10-09 04:35:43,15.08839518,0.0001608,53.2195,219.3571,62.3944,297.7211,2.4607e-06,-2.49e-06,0.0,0 STARLINK-3668,1 52002U 22025AY  22282.19147796 -.00000249  00000-0  24607-5 0  9990,2 52002  53.2195 219.3571 0001608  62.3944 297.7211 15.08839518 34102,6917.882,95.438,540.859,538.634,0.0
52002.0,STARLINK-3668,PAYLOAD,2022-10-09 12:32:39,15.08841496,0.0001576999999999,53.2198,217.8706,60.5558,299.5591,-4.8565e-05,-1.061e-05,0.0,0 STARLINK-3668,1 52002U 22025AY  22282.52268054 -.00001061  00000-0 -48565-4 0  9990,2 52002  53.2198 217.8706 0001577  60.5558 299.5591 15.08841496 32640,6917.876,95.437,540.832,538.65,0.0
52002.0,STARLINK-3668,PAYLOAD,2022-10-10 02:51:07,15.08854987,0.0001639,53.2192,215.1907,49.1954,310.918,-4.4469e-05,-9.96e-06,0.0,0 STARLINK-3668,1 52002U 22025AY  22283.11883175 -.00000996  00000-0 -44469-4 0  9998,2 52002  53.2192 215.1907 0001639  49.1954 310.9180 15.08854987 34249,6917.835,95.437,540.8330000000002,538.566,0.0
52002.0,STARLINK-3668,PAYLOAD,2022-10-10 06:01:53,15.0884535,0.0001474,53.2196,214.5989,58.3038,301.8097,1.6524e-05,-2.5e-07,0.0,0 STARLINK-3668,1 52002U 22025AY  22283.25131554 -.00000025  00000-0  16524-4 0  9993,2 52002  53.2196 214.5989 0001474  58.3038 301.8097 15.08845350 34260,6917.864000000001,95.437,540.749,538.7090000000002,0.0
52002.0,STARLINK-3668,PAYLOAD,2022-10-10 12:23:26,15.08835637,0.000152,53.2196,213.4093,58.5089,301.6051,0.00011017,1.466e-05,0.0,0 STARLINK-3668,1 52002U 22025AY  22283.51627962  .00001466  00000-0  11017-3 0  9995,2 52002  53.2196 213.4093 0001520  58.5089 301.6051 15.08835637 32795,6917.894,95.438,540.81,538.707,0.0
52002.0,STARLINK-3668,PAYLOAD,2022-10-11 04:17:18,15.088294,0.0001652,53.2196,210.4367,66.2243,293.8923,-2.4941e-05,-6.85e-06,0.0,0 STARLINK-3668,1 52002U 22025AY  22284.17869184 -.00000685  00000-0 -24941-4 0  9997,2 52002  53.2196 210.4367 0001652  66.2243 293.8923 15.08829400 32892,6917.913000000001,95.438,540.9209999999998,538.635,0.0
52002.0,STARLINK-3668,PAYLOAD,2022-10-12 04:08:07,15.0882255,0.0001462,53.2191,205.9739,76.4703,283.6452,-0.00014963,-2.667e-05,0.0,0 STARLINK-3668,1 52002U 22025AY  22285.17230938 -.00002667  00000-0 -14963-3 0  9991,2 52002  53.2191 205.9739 0001462  76.4703 283.6452 15.08822550 34550,6917.934,95.439,540.81,538.7869999999998,0.0
52002.0,STARLINK-3668,PAYLOAD,2022-10-12 12:05:02,15.08826951,0.0001434,53.2195,204.4876,63.3227,296.7912,-3.0923e-05,-7.8e-06,0.0,0 STARLINK-3668,1 52002U 22025AY  22285.50350575 -.00000780  00000-0 -30923-4 0  9997,2 52002  53.2195 204.4876 0001434  63.3227 296.7912 15.08826951 34606,6917.92,95.438,540.7769999999998,538.793,0.0
52002.0,STARLINK-3668,PAYLOAD,2022-10-13 00:48:07,15.08830842,0.0001605,53.2194,202.1098,60.9433,299.172,0.00011183,1.492e-05,0.0,0 STARLINK-3668,1 52002U 22025AY  22286.03342290  .00001492  00000-0  11183-3 0  9996,2 52002  53.2194 202.1098 0001605  60.9433 299.1720 15.08830842 34684,6917.908,95.438,540.884,538.663,0.0
52002.0,STARLINK-3668,PAYLOAD,2022-10-13 11:55:49,15.08829403,0.0001455,53.2195,200.0285,67.844,292.2706,0.00014615,2.038e-05,0.0,0 STARLINK-3668,1 52002U 22025AY  22286.49710572  .00002038  00000-0  14615-3 0  9998,2 52002  53.2195 200.0285 0001455  67.8440 292.2706 15.08829403 33247,6917.913000000001,95.438,540.784,538.771,0.0
52002.0,STARLINK-3668,PAYLOAD,2022-10-14 00:38:54,15.0883593,0.0001376999999999,53.2192,197.6505,60.3877,299.7253,0.00016149,2.283e-05,0.0,0 STARLINK-3668,1 52002U 22025AY  22287.02702387  .00002283  00000-0  16149-3 0  9999,2 52002  53.2192 197.6505 0001377  60.3877 299.7253 15.08835930 33325,6917.893,95.438,540.71,538.805,0.0
52002.0,STARLINK-3668,PAYLOAD,2022-10-15 00:29:40,15.0885363,0.0001449,53.2193,193.189,64.5369,295.5773,0.00013561,1.872e-05,0.0,0 STARLINK-3668,1 52002U 22025AY  22288.02060980  .00001872  00000-0  13561-3 0  9994,2 52002  53.2193 193.1890 0001449  64.5369 295.5773 15.08853630 33470,6917.839,95.437,540.706,538.701,0.0
52002.0,STARLINK-3668,PAYLOAD,2022-10-16 03:31:14,15.08826943,0.0001568,53.2188,188.135,59.0703,301.0443,0.00015455,2.172e-05,0.0,0 STARLINK-3668,1 52002U 22025AY  22289.14669544  .00002172  00000-0  15455-3 0  9997,2 52002  53.2188 188.1350 0001568  59.0703 301.0443 15.08826943 35153,6917.92,95.438,540.87,538.701,0.0
52002.0,STARLINK-3668,PAYLOAD,2022-10-16 17:49:41,15.088475199999998,0.0001271,53.219,185.4587,65.515,294.5975,-6.0665e-05,-1.253e-05,0.0,0 STARLINK-3668,1 52002U 22025AY  22289.74284614 -.00001253  00000-0 -60665-4 0  9999,2 52002  53.2190 185.4587 0001271  65.5150 294.5975 15.08847520 35247,6917.857,95.437,540.602,538.8430000000002,0.0
52002.0,STARLINK-3668,PAYLOAD,2022-10-17 03:22:00,15.08840745,0.0001491,53.219,183.6756,65.3775,294.7372,-0.00011833,-2.171e-05,0.0,0 STARLINK-3668,1 52002U 22025AY  22290.14028867 -.00002171  00000-0 -11833-3 0  9993,2 52002  53.2190 183.6756 0001491  65.3775 294.7372 15.08840745 35302,6917.878000000002,95.438,540.775,538.712,0.0
52002.0,STARLINK-3668,PAYLOAD,2022-10-17 17:40:30,15.08820213,0.0001501,53.2191,180.9985,66.661,293.454,-8.7498e-05,-1.679e-05,0.0,0 STARLINK-3668,1 52002U 22025AY  22290.73646478 -.00001679  00000-0 -87498-4 0  9995,2 52002  53.2191 180.9985 0001501  66.6610 293.4540 15.08820213 35391,6917.941,95.439,540.844,538.7669999999998,0.0
52002.0,STARLINK-3668,PAYLOAD,2022-10-18 01:37:25,15.08840115,0.0001311,53.219,179.5117,87.8651,272.2491,-0.00014272,-2.559e-05,0.0,0 STARLINK-3668,1 52002U 22025AY  22291.06765715 -.00002559  00000-0 -14272-3 0  9995,2 52002  53.2190 179.5117 0001311  87.8651 272.2491 15.08840115 35449,6917.88,95.438,540.6519999999998,538.8380000000002,0.0
52002.0,STARLINK-3668,PAYLOAD,2022-10-18 09:34:21,15.08835,0.0001338,53.2191,178.0249,66.1101,294.0031,3.8348e-05,3.22e-06,0.0,0 STARLINK-3668,1 52002U 22025AY  22291.39885530  .00000322  00000-0  38348-4 0  9994,2 52002  53.2191 178.0249 0001338  66.1101 294.0031 15.08835000 33985,6917.896,95.438,540.686,538.835,0.0
52002.0,STARLINK-3668,PAYLOAD,2022-10-18 17:31:17,15.08832381,0.0001975,53.2195,176.5381,59.9842,300.1346,-5.9189e-05,-1.23e-05,0.0,0 STARLINK-3668,1 52002U 22025AY  22291.73006465 -.00001230  00000-0 -59189-4 0  9991,2 52002  53.2195 176.5381 0001975  59.9842 300.1346 15.08832381 35549,6917.904,95.438,541.135,538.4019999999998,0.0
52002.0,STARLINK-3668,PAYLOAD,2022-10-19 09:25:08,15.0883203,0.0001717,53.2189,173.5648,64.0415,296.0754,0.00013597,1.876e-05,0.0,0 STARLINK-3668,1 52002U 22025AY  22292.39246097  .00001876  00000-0  13597-3 0  9997,2 52002  53.2189 173.5648 0001717  64.0415 296.0754 15.08832030 34133,6917.905,95.438,540.9580000000002,538.582,0.0
